*******************************************************************************
 Revised: Aug 08, 2019            Hyperion / (Saturn)                       607
                        http://ssd.jpl.nasa.gov/?sat_phys_par
                          http://ssd.jpl.nasa.gov/?sat_elem

 SATELLITE PHYSICAL PROPERTIES:
  Mean Radius (km)        = 133    +- 8    Density (g/cm^3)  =  0.569 +- 0.108
  Mass (10^19 kg)         =   1.08 +- 0.52 Geometric Albedo  =  0.25
  GM (km^3/s^2)           = 0.3708 +- 0.02 V(1,0)            = +4.8 

 SATELLITE ORBITAL DATA (mean values with respect to local Laplace plane):
  Semi-major axis, a (km) = 1500.88(10^3)  Orbital period    = 21.276609 d
  Eccentricity, e         = 0.0274         Rotational period = Chaotic
  Inclination, i  (deg)   = 0.630
*******************************************************************************
 

 

*******************************************************************************
Ephemeris / WWW_USER Thu Dec 26 16:02:38 2019 Pasadena, USA      / Horizons    
*******************************************************************************
Target body name: Hyperion (607)                  {source: sat425l_merged_DE438}
Center body name: Sun (10)                        {source: sat425l_merged_DE438}
Center-site name: BODY CENTER
*******************************************************************************
Start time      : A.D. 2019-Dec-26 00:00:00.0000 TDB
Stop  time      : A.D. 2020-Jan-25 00:00:00.0000 TDB
Step-size       : 1440 minutes
*******************************************************************************
Center geodetic : 0.00000000,0.00000000,0.0000000 {E-lon(deg),Lat(deg),Alt(km)}
Center cylindric: 0.00000000,0.00000000,0.0000000 {E-lon(deg),Dxy(km),Dz(km)}
Center radii    : 696000.0 x 696000.0 x 696000.0 k{Equator, meridian, pole}    
Keplerian GM    : 1.3271244004231010E+11 km^3/s^2
Output units    : KM-S, deg                                                    
Output type     : GEOMETRIC osculating elements
Output format   : 10
Reference frame : ICRF/J2000.0                                                 
Coordinate systm: Ecliptic and Mean Equinox of Reference Epoch                 
*******************************************************************************
            JDTDB,            Calendar Date (TDB),                     EC,                     QR,                     IN,                     OM,                      W,                     Tp,                      N,                     MA,                     TA,                      A,                     AD,                     PR,
**************************************************************************************************************************************************************************************************************************************************************************************************************************************************
$$SOE
2458843.500000000, A.D. 2019-Dec-26 00:00:00.0000,  7.009080920933095E-01,  2.980268516377961E+08,  9.167878467859310E+00,  1.123449140761657E+02,  3.405807357251466E+02,  1.632689750302383E+08,  6.635938489695133E-07,  2.516557124423768E+02,  1.991558402007504E+02,  9.964390334852303E+08,  1.694851215332664E+09,  5.425005077413534E+08,
2458844.500000000, A.D. 2019-Dec-27 00:00:00.0000,  7.559367610094170E-01,  2.191096525236869E+08,  2.243634749987541E+00,  1.131287423874216E+02,  3.485606567713780E+02,  1.708327948466832E+08,  7.759607249507695E-07,  2.274404606654016E+02,  1.904113075999641E+02,  8.977577017739283E+08,  1.576405751024170E+09,  4.639410068374789E+08,
2458845.500000000, A.D. 2019-Dec-28 00:00:00.0000,  7.681238566984919E-01,  1.991159695407861E+08,  5.167272734314788E+00,  2.916673004057001E+02,  1.754965082159062E+02,  1.880778828796319E+08,  8.294752132406887E-07,  2.039940579925601E+02,  1.849547606135921E+02,  8.587169283813556E+08,  1.518317887221925E+09,  4.340093522427401E+08,
2458846.500000000, A.D. 2019-Dec-29 00:00:00.0000,  7.442777915237246E-01,  2.198735741713603E+08,  1.083717410328057E+01,  2.919081197920161E+02,  1.799271389791758E+02,  2.157663939498711E+08,  8.278879565888565E-07,  1.813696010122950E+02,  1.803006536051759E+02,  8.598141533403776E+08,  1.499754732509395E+09,  4.348414506273368E+08,
2458847.500000000, A.D. 2019-Dec-30 00:00:00.0000,  6.914866179067356E-01,  2.760127296851860E+08,  1.384448922499543E+01,  2.919595743341446E+02,  1.853416735319428E+02, -2.047861775151635E+08,  7.800021349353233E-07,  1.597336556670716E+02,  1.748522871468527E+02,  8.946539946255770E+08,  1.513295259565968E+09,  4.615371982665800E+08,
2458848.500000000, A.D. 2019-Dec-31 00:00:00.0000,  6.158842479169974E-01,  3.707017626045336E+08,  1.454958095862077E+01,  2.919693115225825E+02,  1.929836634428243E+02, -1.992621848211603E+08,  6.962010100771604E-07,  1.387265343426736E+02,  1.672192824161699E+02,  9.650782624619613E+08,  1.559454762319389E+09,  5.170920392087638E+08,
2458849.500000000, A.D. 2020-Jan-01 00:00:00.0000,  5.261797299715201E-01,  5.123456171277372E+08,  1.369610060058129E+01,  2.919557433011754E+02,  2.047533379489856E+02, -1.992875128902728E+08,  5.870219831514780E-07,  1.169861510341737E+02,  1.554837460108015E+02,  1.081307933695918E+09,  1.650270250264098E+09,  6.132649378261936E+08,
2458850.500000000, A.D. 2020-Jan-02 00:00:00.0000,  4.417039961240071E-01,  7.074539984672726E+08,  1.190659552871310E+01,  2.919179674961598E+02,  2.238352421869096E+02, -1.979879950304998E+08,  4.627302805369116E-07,  9.161504048340383E+01,  1.364626542131079E+02,  1.267166509442561E+09,  1.826879020417849E+09,  7.779910136468433E+08,
2458851.500000000, A.D. 2020-Jan-03 00:00:00.0000,  4.056071847632183E-01,  9.371649617697587E+08,  9.596473224970644E+00,  2.918426191308719E+02,  2.528641264384165E+02, -1.802641979792556E+08,  3.333993215570673E-07,  6.009996130731268E+01,  1.075351170750448E+02,  1.576676126874835E+09,  2.216187291979912E+09,  1.079786240471936E+09,
2458852.500000000, A.D. 2020-Jan-04 00:00:00.0000,  4.696826868119007E-01,  1.139798926716024E+09,  7.017888269458964E+00,  2.916899599158353E+02,  2.848800850944652E+02, -1.404314267207199E+08,  2.094786625903755E-07,  2.941738745511476E+01,  7.570115762667466E+01,  2.149277231519964E+09,  3.158755536323905E+09,  1.718552121482468E+09,
2458853.500000000, A.D. 2020-Jan-05 00:00:00.0000,  6.303905456763509E-01,  1.280473234823315E+09,  4.313380814333610E+00,  2.913145530020678E+02,  3.092674832382248E+02, -9.928734750950521E+07,  1.023616550792647E-07,  1.016321721950306E+01,  5.172209853175387E+01,  3.464395241638130E+09,  5.648317248452945E+09,  3.516941961530717E+09,
2458854.500000000, A.D. 2020-Jan-06 00:00:00.0000,  8.444033857724678E-01,  1.375200444960886E+09,  1.559154623132199E+00,  2.895325211652358E+02,  3.274956058261874E+02, -6.744200293071033E+07,  2.512057968434635E-08,  1.694182208692827E+00,  3.531262088054676E+01,  8.838241447528524E+09,  1.630128245009616E+10,  1.433087948302127E+10,
2458855.500000000, A.D. 2020-Jan-07 00:00:00.0000,  1.070251401430293E+00,  1.440901705765444E+09,  1.213132287724004E+00,  1.159962601888627E+02,  1.535092347637859E+02, -4.283967267487321E+07,  7.105741508197529E-09,  3.044076403234421E-01,  2.287541240190616E+01, -2.051064713912027E+10,  9.999999000000000E+99,  9.999999000000000E+99,
2458856.500000000, A.D. 2020-Jan-08 00:00:00.0000,  1.266510663315517E+00,  1.483544181265853E+09,  3.969976315187687E+00,  1.134994693047094E+02,  1.668342663763742E+02, -2.216943569085439E+07,  5.025735264811303E-08,  1.114177147524932E+00,  1.209042899879862E+01, -5.566547179800912E+09,  9.999999000000000E+99,  9.999999000000000E+99,
2458857.500000000, A.D. 2020-Jan-09 00:00:00.0000,  1.386478722770954E+00,  1.501898067216606E+09,  6.695083537824615E+00,  1.130704800266913E+02,  1.777769616020272E+02, -2.928719319427009E+06,  8.616009035531840E-08,  2.523387211871977E-01,  1.622209242022306E+00, -3.886108028013490E+09,  9.999999000000000E+99,  9.999999000000000E+99,
2458858.500000000, A.D. 2020-Jan-10 00:00:00.0000,  1.384942571024375E+00,  1.490256123387966E+09,  9.342265453369819E+00,  1.129063044826119E+02,  1.891013853922270E+02,  1.703067193641776E+07,  8.665247883672587E-08, -1.475749939545661E+00,  3.505083112440211E+02, -3.871372603508714E+09,  9.999999000000000E+99,  9.999999000000000E+99,
2458859.500000000, A.D. 2020-Jan-11 00:00:00.0000,  1.239617277165607E+00,  1.439534021935051E+09,  1.181950302947575E+01,  1.128288311280297E+02,  2.020861980469025E+02,  4.021735702554759E+07,  4.482525229194241E-08, -1.802753175185293E+00,  3.376463734203221E+02, -6.007638676822711E+09,  9.999999000000000E+99,  9.999999000000000E+99,
2458860.500000000, A.D. 2020-Jan-12 00:00:00.0000,  9.794530816790511E-01,  1.335841658702833E+09,  1.395333592970971E+01,  1.127908214473013E+02,  2.188438222840173E+02,  7.028750233588062E+07,  1.259116794685848E-09,  3.599114998253523E+02,  3.209692198031103E+02,  6.501420981173844E+10,  1.286925779647740E+11,  2.859146995095246E+11,
2458861.500000000, A.D. 2020-Jan-13 00:00:00.0000,  7.004328414397161E-01,  1.153379222048373E+09,  1.544476302655966E+01,  1.127742941121617E+02,  2.439271946700290E+02,  1.111244113793348E+08,  8.736984485570071E-08,  3.502910774181065E+02,  2.959401981669508E+02,  3.850152425224110E+09,  6.546925628399847E+09,  4.120414779201828E+09,
2458862.500000000, A.D. 2020-Jan-14 00:00:00.0000,  5.477831714648719E-01,  8.646429103481022E+08,  1.582336344029652E+01,  1.127712422643563E+02,  2.813048554623488E+02,  1.522797434634139E+08,  2.496567726893335E-07,  3.219823307009644E+02,  2.585978342599258E+02,  1.912009584315894E+09,  2.959376258283686E+09,  1.441979707267845E+09,
